QIANFAN-57              
1 62787U 25016C   25297.27605605  .00000055  00000+0  67150-4 0  9992
2 62787  88.9747 108.3049 0001027  74.1756 285.9508 13.50976297 40527
QIANFAN-58              
1 62788U 25016D   25297.24722785  .00000053  00000+0  62623-4 0  9997
2 62788  88.9717 108.1548 0015319 122.7392 237.5238 13.50975899 40566
QIANFAN-59              
1 62789U 25016E   25297.27190397  .00000055  00000+0  66366-4 0  9999
2 62789  88.9740 108.2141 0015639 126.2059 234.0540 13.50975302 40564
QIANFAN-60              
1 62790U 25016F   25297.30495699  .00000046  00000+0  52981-4 0  9996
2 62790  88.9722 108.1916 0017221 123.2065 237.0740 13.50971989 40559
QIANFAN-61              
1 62791U 25016G   25297.26365000  .00000060  00000+0  73352-4 0  9995
2 62791  88.9789 108.3251 0016174 122.5678 237.7038 13.50975619 40567
QIANFAN-62              
1 62792U 25016H   25297.26793410  .00000047  00000+0  54596-4 0  9990
2 62792  88.9736 108.2199 0017544 123.1680 237.1157 13.50969511 40551
QIANFAN-63              
1 62793U 25016J   25297.29250351  .00000066  00000+0  82775-4 0  9997
2 62793  88.9742 108.1655 0017517 128.0379 232.2357 13.50972526 40596
QIANFAN-64              
1 62794U 25016K   25297.25956419  .00000058  00000+0  70131-4 0  9996
2 62794  88.9729 108.1497 0015565 121.2256 239.0423 13.50974180 40582
